[{"OBJECT_NAME":"ONEWEB-0647","OBJECT_ID":"2023-043AK","EPOCH":"2026-02-13T03:38:25.163232","MEAN_MOTION":13.15549275,"ECCENTRICITY":0.0001433,"INCLINATION":87.897,"RA_OF_ASC_NODE":283.9965,"ARG_OF_PERICENTER":77.7478,"MEAN_ANOMALY":282.3812,"EPHEMERIS_TYPE":0,"CLASSIFICATION_TYPE":"U","NORAD_CAT_ID":56079,"ELEMENT_SET_NO":999,"REV_AT_EPOCH":14011,"BSTAR":-0.00019007,"MEAN_MOTION_DOT":-5.9e-7,"MEAN_MOTION_DDOT":0},{"OBJECT_NAME":"ONEWEB-0651","OBJECT_ID":"2023-043AL","EPOCH":"2026-02-13T03:31:34.554144","MEAN_MOTION":13.15549767,"ECCENTRICITY":0.0001615,"INCLINATION":87.8975,"RA_OF_ASC_NODE":283.9923,"ARG_OF_PERICENTER":72.8585,"MEAN_ANOMALY":287.2722,"EPHEMERIS_TYPE":0,"CLASSIFICATION_TYPE":"U","NORAD_CAT_ID":56080,"ELEMENT_SET_NO":999,"REV_AT_EPOCH":14131,"BSTAR":-0.00020187,"MEAN_MOTION_DOT":-6.3e-7,"MEAN_MOTION_DDOT":0},{"OBJECT_NAME":"ONEWEB-0718","OBJECT_ID":"2023-043AM","EPOCH":"2026-02-13T03:24:42.128928","MEAN_MOTION":13.15545986,"ECCENTRICITY":0.0002,"INCLINATION":87.8975,"RA_OF_ASC_NODE":283.973,"ARG_OF_PERICENTER":94.3193,"MEAN_ANOMALY":265.8166,"EPHEMERIS_TYPE":0,"CLASSIFICATION_TYPE":"U","NORAD_CAT_ID":56081,"ELEMENT_SET_NO":999,"REV_AT_EPOCH":14012,"BSTAR":-1.1529e-5,"MEAN_MOTION_DOT":8.0e-8,"MEAN_MOTION_DDOT":0},{"OBJECT_NAME":"ONEWEB-0561","OBJECT_ID":"2023-068A","EPOCH":"2026-02-13T02:35:44.185920","MEAN_MOTION":13.20770752,"ECCENTRICITY":0.0001344,"INCLINATION":87.9204,"RA_OF_ASC_NODE":299.2119,"ARG_OF_PERICENTER":68.6898,"MEAN_ANOMALY":291.4379,"EPHEMERIS_TYPE":0,"CLASSIFICATION_TYPE":"U","NORAD_CAT_ID":56710,"ELEMENT_SET_NO":999,"REV_AT_EPOCH":13312,"BSTAR":0.00014407,"MEAN_MOTION_DOT":7.2e-7,"MEAN_MOTION_DDOT":0},{"OBJECT_NAME":"ONEWEB-0668","OBJECT_ID":"2023-068B","EPOCH":"2026-02-13T02:20:58.001856","MEAN_MOTION":13.1659426,"ECCENTRICITY":0.0002111,"INCLINATION":87.9011,"RA_OF_ASC_NODE":253.4604,"ARG_OF_PERICENTER":89.2821,"MEAN_ANOMALY":270.8552,"EPHEMERIS_TYPE":0,"CLASSIFICATION_TYPE":"U","NORAD_CAT_ID":56711,"ELEMENT_SET_NO":999,"REV_AT_EPOCH":13545,"BSTAR":0.00048771,"MEAN_MOTION_DOT":1.99e-6,"MEAN_MOTION_DDOT":0},{"OBJECT_NAME":"ONEWEB-0676","OBJECT_ID":"2023-068C","EPOCH":"2026-02-13T00:42:54.681120","MEAN_MOTION":13.16592601,"ECCENTRICITY":0.0001427,"INCLINATION":87.8998,"RA_OF_ASC_NODE":253.4889,"ARG_OF_PERICENTER":78.6198,"MEAN_ANOMALY":281.5093,"EPHEMERIS_TYPE":0,"CLASSIFICATION_TYPE":"U","NORAD_CAT_ID":56712,"ELEMENT_SET_NO":999,"REV_AT_EPOCH":13536,"BSTAR":0.00028415,"MEAN_MOTION_DOT":1.21e-6,"MEAN_MOTION_DDOT":0},{"OBJECT_NAME":"ONEWEB-0677","OBJECT_ID":"2023-068D","EPOCH":"2026-02-13T04:08:54.729888","MEAN_MOTION":13.20770884,"ECCENTRICITY":0.0001769,"INCLINATION":87.9213,"RA_OF_ASC_NODE":299.189,"ARG_OF_PERICENTER":75.8365,"MEAN_ANOMALY":284.2965,"EPHEMERIS_TYPE":0,"CLASSIFICATION_TYPE":"U","NORAD_CAT_ID":56713,"ELEMENT_SET_NO":999,"REV_AT_EPOCH":13343,"BSTAR":1.1541e-5,"MEAN_MOTION_DOT":1.8e-7,"MEAN_MOTION_DDOT":0},{"OBJECT_NAME":"ONEWEB-0678","OBJECT_ID":"2023-068E","EPOCH":"2026-02-13T02:39:05.670720","MEAN_MOTION":13.15549104,"ECCENTRICITY":0.0001269,"INCLINATION":87.8981,"RA_OF_ASC_NODE":283.9602,"ARG_OF_PERICENTER":91.4008,"MEAN_ANOMALY":268.7268,"EPHEMERIS_TYPE":0,"CLASSIFICATION_TYPE":"U","NORAD_CAT_ID":56714,"ELEMENT_SET_NO":999,"REV_AT_EPOCH":13297,"BSTAR":0.00046117,"MEAN_MOTION_DOT":1.86e-6,"MEAN_MOTION_DDOT":0},{"OBJECT_NAME":"ONEWEB-0679","OBJECT_ID":"2023-068F","EPOCH":"2026-02-13T03:22:31.497312","MEAN_MOTION":13.16595376,"ECCENTRICITY":0.0001955,"INCLINATION":87.9013,"RA_OF_ASC_NODE":253.4505,"ARG_OF_PERICENTER":77.8706,"MEAN_ANOMALY":282.2644,"EPHEMERIS_TYPE":0,"CLASSIFICATION_TYPE":"U","NORAD_CAT_ID":56715,"ELEMENT_SET_NO":999,"REV_AT_EPOCH":13540,"BSTAR":0.00015532,"MEAN_MOTION_DOT":7.2e-7,"MEAN_MOTION_DDOT":0},{"OBJECT_NAME":"ONEWEB-0680","OBJECT_ID":"2023-068G","EPOCH":"2026-02-13T02:32:37.039200","MEAN_MOTION":13.21826991,"ECCENTRICITY":0.0002136,"INCLINATION":87.9191,"RA_OF_ASC_NODE":268.7132,"ARG_OF_PERICENTER":83.027,"MEAN_ANOMALY":277.1107,"EPHEMERIS_TYPE":0,"CLASSIFICATION_TYPE":"U","NORAD_CAT_ID":56716,"ELEMENT_SET_NO":999,"REV_AT_EPOCH":13470,"BSTAR":0.00026401,"MEAN_MOTION_DOT":1.22e-6,"MEAN_MOTION_DDOT":0},{"OBJECT_NAME":"ONEWEB-0681","OBJECT_ID":"2023-068H","EPOCH":"2026-02-13T03:51:57.508992","MEAN_MOTION":13.21827676,"ECCENTRICITY":0.0001411,"INCLINATION":87.9184,"RA_OF_ASC_NODE":268.7128,"ARG_OF_PERICENTER":46.8952,"MEAN_ANOMALY":313.23,"EPHEMERIS_TYPE":0,"CLASSIFICATION_TYPE":"U","NORAD_CAT_ID":56717,"ELEMENT_SET_NO":999,"REV_AT_EPOCH":13470,"BSTAR":-5.2572e-5,"MEAN_MOTION_DOT":-9.0e-8,"MEAN_MOTION_DDOT":0},{"OBJECT_NAME":"ONEWEB-0682","OBJECT_ID":"2023-068J","EPOCH":"2026-02-13T03:16:44.271264","MEAN_MOTION":13.15548989,"ECCENTRICITY":0.0002045,"INCLINATION":87.8972,"RA_OF_ASC_NODE":283.9632,"ARG_OF_PERICENTER":80.3046,"MEAN_ANOMALY":279.8316,"EPHEMERIS_TYPE":0,"CLASSIFICATION_TYPE":"U","NORAD_CAT_ID":56718,"ELEMENT_SET_NO":999,"REV_AT_EPOCH":13314,"BSTAR":-2.7738e-5,"MEAN_MOTION_DOT":2.0e-8,"MEAN_MOTION_DDOT":0},{"OBJECT_NAME":"ONEWEB-0683","OBJECT_ID":"2023-068K","EPOCH":"2026-02-13T03:47:32.830368","MEAN_MOTION":13.15549641,"ECCENTRICITY":0.0001827,"INCLINATION":87.8982,"RA_OF_ASC_NODE":283.9497,"ARG_OF_PERICENTER":82.5463,"MEAN_ANOMALY":277.5875,"EPHEMERIS_TYPE":0,"CLASSIFICATION_TYPE":"U","NORAD_CAT_ID":56719,"ELEMENT_SET_NO":999,"REV_AT_EPOCH":13311,"BSTAR":-0.00016493,"MEAN_MOTION_DOT":-4.9e-7,"MEAN_MOTION_DDOT":0},{"OBJECT_NAME":"ONEWEB-0684","OBJECT_ID":"2023-068L","EPOCH":"2026-02-13T02:09:25.842816","MEAN_MOTION":13.15549186,"ECCENTRICITY":0.0001395,"INCLINATION":87.898,"RA_OF_ASC_NODE":283.9562,"ARG_OF_PERICENTER":138.3618,"MEAN_ANOMALY":221.7619,"EPHEMERIS_TYPE":0,"CLASSIFICATION_TYPE":"U","NORAD_CAT_ID":56720,"ELEMENT_SET_NO":999,"REV_AT_EPOCH":13293,"BSTAR":-3.0578e-5,"MEAN_MOTION_DOT":1.0e-8,"MEAN_MOTION_DDOT":0},{"OBJECT_NAME":"ONEWEB-0686","OBJECT_ID":"2023-068M","EPOCH":"2026-02-13T02:25:30.581760","MEAN_MOTION":13.16585417,"ECCENTRICITY":0.000156,"INCLINATION":87.8993,"RA_OF_ASC_NODE":253.5019,"ARG_OF_PERICENTER":101.4577,"MEAN_ANOMALY":258.6729,"EPHEMERIS_TYPE":0,"CLASSIFICATION_TYPE":"U","NORAD_CAT_ID":56721,"ELEMENT_SET_NO":999,"REV_AT_EPOCH":13538,"BSTAR":0.0041449,"MEAN_MOTION_DOT":1.597e-5,"MEAN_MOTION_DDOT":0},{"OBJECT_NAME":"ONEWEB-0694","OBJECT_ID":"2023-068N","EPOCH":"2026-02-13T00:45:11.628576","MEAN_MOTION":13.16594664,"ECCENTRICITY":0.0001991,"INCLINATION":87.9008,"RA_OF_ASC_NODE":253.4558,"ARG_OF_PERICENTER":88.182,"MEAN_ANOMALY":271.9539,"EPHEMERIS_TYPE":0,"CLASSIFICATION_TYPE":"U","NORAD_CAT_ID":56722,"ELEMENT_SET_NO":999,"REV_AT_EPOCH":13543,"BSTAR":4.652e-5,"MEAN_MOTION_DOT":3.1e-7,"MEAN_MOTION_DDOT":0},{"OBJECT_NAME":"ONEWEB-0696","OBJECT_ID":"2023-068P","EPOCH":"2026-02-13T02:57:20.388960","MEAN_MOTION":13.15547434,"ECCENTRICITY":0.0001152,"INCLINATION":87.8972,"RA_OF_ASC_NODE":283.9979,"ARG_OF_PERICENTER":100.3381,"MEAN_ANOMALY":259.7879,"EPHEMERIS_TYPE":0,"CLASSIFICATION_TYPE":"U","NORAD_CAT_ID":56723,"ELEMENT_SET_NO":999,"REV_AT_EPOCH":13305,"BSTAR":0.00031008,"MEAN_MOTION_DOT":1.3e-6,"MEAN_MOTION_DDOT":0}]
