ONEWEB-0647             
1 56079U 23043AK  26044.15168013 -.00000059  00000+0 -19007-3 0  9995
2 56079  87.8970 283.9965 0001433  77.7478 282.3812 13.15549275140116
ONEWEB-0651             
1 56080U 23043AL  26044.14692771 -.00000063  00000+0 -20187-3 0  9995
2 56080  87.8975 283.9923 0001615  72.8585 287.2722 13.15549767141317
ONEWEB-0718             
1 56081U 23043AM  26044.14215427  .00000008  00000+0 -11529-4 0  9994
2 56081  87.8975 283.9730 0002000  94.3193 265.8166 13.15545986140128
ONEWEB-0561             
1 56710U 23068A   26044.10815030  .00000072  00000+0  14407-3 0  9999
2 56710  87.9204 299.2119 0001344  68.6898 291.4379 13.20770752133120
ONEWEB-0668             
1 56711U 23068B   26044.09789354  .00000199  00000+0  48771-3 0  9998
2 56711  87.9011 253.4604 0002111  89.2821 270.8552 13.16594260135451
ONEWEB-0676             
1 56712U 23068C   26044.02979955  .00000121  00000+0  28415-3 0  9998
2 56712  87.8998 253.4889 0001427  78.6198 281.5093 13.16592601135364
ONEWEB-0677             
1 56713U 23068D   26044.17285567  .00000018  00000+0  11541-4 0  9992
2 56713  87.9213 299.1890 0001769  75.8365 284.2965 13.20770884133439
ONEWEB-0678             
1 56714U 23068E   26044.11048230  .00000186  00000+0  46117-3 0  9993
2 56714  87.8981 283.9602 0001269  91.4008 268.7268 13.15549104132970
ONEWEB-0679             
1 56715U 23068F   26044.14064233  .00000072  00000+0  15532-3 0  9999
2 56715  87.9013 253.4505 0001955  77.8706 282.2644 13.16595376135400
ONEWEB-0680             
1 56716U 23068G   26044.10598425  .00000122  00000+0  26401-3 0  9994
2 56716  87.9191 268.7132 0002136  83.0270 277.1107 13.21826991134705
ONEWEB-0681             
1 56717U 23068H   26044.16108228 -.00000009  00000+0 -52572-4 0  9994
2 56717  87.9184 268.7128 0001411  46.8952 313.2300 13.21827676134700
ONEWEB-0682             
1 56718U 23068J   26044.13662351  .00000002  00000+0 -27738-4 0  9992
2 56718  87.8972 283.9632 0002045  80.3046 279.8316 13.15548989133146
ONEWEB-0683             
1 56719U 23068K   26044.15801887 -.00000049  00000+0 -16493-3 0  9991
2 56719  87.8982 283.9497 0001827  82.5463 277.5875 13.15549641133119
ONEWEB-0684             
1 56720U 23068L   26044.08988244  .00000001  00000+0 -30578-4 0  9996
2 56720  87.8980 283.9562 0001395 138.3618 221.7619 13.15549186132934
ONEWEB-0686             
1 56721U 23068M   26044.10104840  .00001597  00000+0  41449-2 0  9999
2 56721  87.8993 253.5019 0001560 101.4577 258.6729 13.16585417135389
ONEWEB-0694             
1 56722U 23068N   26044.03138459  .00000031  00000+0  46520-4 0  9994
2 56722  87.9008 253.4558 0001991  88.1820 271.9539 13.16594664135432
ONEWEB-0696             
1 56723U 23068P   26044.12315265  .00000130  00000+0  31008-3 0  9991
2 56723  87.8972 283.9979 0001152 100.3381 259.7879 13.15547434133054
